GLOBALSTAR M035         
1 25851U 99037A   25125.79622479 -.00000049  00000+0  56290-3 0  9998
2 25851  51.9911 149.5017 0014126 272.3299 258.4394 11.04538123 91579
GLOBALSTAR M032         
1 25852U 99037B   25125.90337500 -.00000099  00000+0 -10357-2 0  9999
2 25852  51.9976 337.3773 0012816  95.8753 264.3508 11.19060514130054
GLOBALSTAR M051         
1 25853U 99037C   25125.78608391 -.00000066  00000+0  15248-3 0  9993
2 25853  51.9755 143.1794 0000647 158.4656 201.6182 11.42204712127541
GLOBALSTAR M030         
1 25854U 99037D   25125.85521831 -.00000026  00000+0  10351-2 0  9990
2 25854  51.9890 311.8121 0002966 345.3061  14.7669 11.55107590145153
GLOBALSTAR M048         
1 25872U 99041A   25125.89004233 -.00000064  00000+0  16545-3 0  9995
2 25872  51.9367  76.3232 0013192 110.2931 316.0606 11.33856445120187
GLOBALSTAR M026         
1 25873U 99041B   25125.81599155 -.00000097  00000+0 -12077-2 0  9992
2 25873  52.0014 267.8637 0002195 176.8639 333.6191 11.06838154143792
GLOBALSTAR M043         
1 25874U 99041C   25125.93803744 -.00000039  00000+0  87735-3 0  9997
2 25874  51.9376 182.1761 0013696 238.7550 292.8249 11.25693543118117
GLOBALSTAR M028         
1 25875U 99041D   25125.87308105 -.00000088  00000+0  78568-4 0  9991
2 25875  51.9637 319.2398 0062929 340.3175  19.5259 12.50581943184884
